FLOCK 4G-1              
1 62666U 25009BK  26068.75951132  .00013534  00000+0  50654-3 0  9995
2 62666  97.4059 151.3158 0003180 323.1401  36.9619 15.27421081 63725
STARLINK-36408          
1 67473U 26008AE  26068.38016028  .00033053  00000+0  12044-2 0  9999
2 67473  42.9933 207.0577 0002267 173.6156 186.4724 15.27602816  9529
